STARLINK-34137          
1 63953U 25099B   26068.34918514  .00026448  00000+0  96675-3 0  9997
2 63953  43.0034 178.2024 0000853 278.3603  81.7152 15.27594804 47281
BANDWAGON-4 OBJECT M    
1 66304U 25248M   26068.03503276  .00023645  00000+0  95704-3 0  9995
2 66304  45.4108 294.9904 0012944 207.5285 152.4918 15.24295413 18037
